{
  "type": "FeatureCollection",
  "features": [
    {
      "type": "Feature",
      "properties": {
        "norad_id": 27954,
        "name": "GALAXY 13 (HORIZONS-1)",
        "group": "intelsat",
        "lat": 0.9178105197415264,
        "lon": -167.5628155239201,
        "alt_km": 35783.49782185421,
        "timestamp": "2025-12-21T16:47:54.396398+00:00",
        "meta_object_name": "GALAXY 13 (HORIZONS-1)",
        "meta_object_id": "2003-044A",
        "meta_epoch": "2025-12-21T12:24:14.906016",
        "meta_mean_motion": 1.00270258,
        "meta_eccentricity": 0.0002371,
        "meta_inclination": 0.9592,
        "meta_ra_of_asc_node": 86.3582,
        "meta_arg_of_pericenter": 179.4188,
        "meta_mean_anomaly": 220.5966,
        "meta_ephemeris_type": 0,
        "meta_classification_type": "U",
        "meta_norad_cat_id": 27954,
        "meta_element_set_no": 999,
        "meta_rev_at_epoch": 4479,
        "meta_bstar": 0,
        "meta_mean_motion_dot": 1.55e-06,
        "meta_mean_motion_ddot": 0,
        "tle_line1": "1 27954U 03044A   25355.51683919  .00000155  00000+0  00000+0 0  9999",
        "tle_line2": "2 27954   0.9592  86.3582 0002371 179.4188 220.5966  1.00270258 44796"
      },
      "geometry": {
        "type": "Point",
        "coordinates": [
          -167.5628155239201,
          0.9178105197415264
        ]
      }
    },
    {
      "type": "Feature",
      "properties": {
        "norad_id": 28358,
        "name": "INTELSAT 10-02",
        "group": "intelsat",
        "lat": -0.02668797428408374,
        "lon": -18.468812444645895,
        "alt_km": 35782.30467820915,
        "timestamp": "2025-12-21T16:47:54.396410+00:00",
        "meta_object_name": "INTELSAT 10-02",
        "meta_object_id": "2004-022A",
        "meta_epoch": "2025-12-21T06:51:38.551968",
        "meta_mean_motion": 1.00272906,
        "meta_eccentricity": 9.85e-05,
        "meta_inclination": 0.0216,
        "meta_ra_of_asc_node": 73.3158,
        "meta_arg_of_pericenter": 234.5861,
        "meta_mean_anomaly": 244.1552,
        "meta_ephemeris_type": 0,
        "meta_classification_type": "U",
        "meta_norad_cat_id": 28358,
        "meta_element_set_no": 999,
        "meta_rev_at_epoch": 7877,
        "meta_bstar": 0,
        "meta_mean_motion_dot": 1.2e-07,
        "meta_mean_motion_ddot": 0,
        "tle_line1": "1 28358U 04022A   25355.28586287  .00000012  00000+0  00000+0 0  9991",
        "tle_line2": "2 28358   0.0216  73.3158 0000985 234.5861 244.1552  1.00272906 78774"
      },
      "geometry": {
        "type": "Point",
        "coordinates": [
          -18.468812444645895,
          -0.02668797428408374
        ]
      }
    },
    {
      "type": "Feature",
      "properties": {
        "norad_id": 28626,
        "name": "XM-3 (RHYTHM)",
        "group": "intelsat",
        "lat": -0.07026924118222179,
        "lon": 54.2133257840456,
        "alt_km": 36155.9186850493,
        "timestamp": "2025-12-21T16:47:54.396422+00:00",
        "meta_object_name": "XM-3 (RHYTHM)",
        "meta_object_id": "2005-008A",
        "meta_epoch": "2025-12-21T11:49:55.600032",
        "meta_mean_motion": 0.98949866,
        "meta_eccentricity": 0.000199,
        "meta_inclination": 0.1961,
        "meta_ra_of_asc_node": 82.0263,
        "meta_arg_of_pericenter": 277.5853,
        "meta_mean_anomaly": 340.8771,
        "meta_ephemeris_type": 0,
        "meta_classification_type": "U",
        "meta_norad_cat_id": 28626,
        "meta_element_set_no": 999,
        "meta_rev_at_epoch": 4083,
        "meta_bstar": 0,
        "meta_mean_motion_dot": 8.7e-07,
        "meta_mean_motion_ddot": 0,
        "tle_line1": "1 28626U 05008A   25355.49300463  .00000087  00000+0  00000+0 0  9999",
        "tle_line2": "2 28626   0.1961  82.0263 0001990 277.5853 340.8771  0.98949866 40834"
      },
      "geometry": {
        "type": "Point",
        "coordinates": [
          54.2133257840456,
          -0.07026924118222179
        ]
      }
    },
    {
      "type": "Feature",
      "properties": {
        "norad_id": 28659,
        "name": "DIRECTV 8",
        "group": "intelsat",
        "lat": -0.025780998619160778,
        "lon": -136.59478448557945,
        "alt_km": 35780.11667299714,
        "timestamp": "2025-12-21T16:47:54.396434+00:00",
        "meta_object_name": "DIRECTV 8",
        "meta_object_id": "2005-019A",
        "meta_epoch": "2025-12-21T10:52:16.196736",
        "meta_mean_motion": 1.00270145,
        "meta_eccentricity": 0.000293,
        "meta_inclination": 0.0248,
        "meta_ra_of_asc_node": 18.6717,
        "meta_arg_of_pericenter": 263.7234,
        "meta_mean_anomaly": 211.896,
        "meta_ephemeris_type": 0,
        "meta_classification_type": "U",
        "meta_norad_cat_id": 28659,
        "meta_element_set_no": 999,
        "meta_rev_at_epoch": 7529,
        "meta_bstar": 0,
        "meta_mean_motion_dot": 0,
        "meta_mean_motion_ddot": 0,
        "tle_line1": "1 28659U 05019A   25355.45296524  .00000000  00000+0  00000+0 0  9990",
        "tle_line2": "2 28659   0.0248  18.6717 0002930 263.7234 211.8960  1.00270145 75297"
      },
      "geometry": {
        "type": "Point",
        "coordinates": [
          -136.59478448557945,
          -0.025780998619160778
        ]
      }
    },
    {
      "type": "Feature",
      "properties": {
        "norad_id": 28702,
        "name": "GALAXY 28 (G-28)",
        "group": "intelsat",
        "lat": 0.341244633507659,
        "lon": -106.20234366032194,
        "alt_km": 35774.751704372735,
        "timestamp": "2025-12-21T16:47:54.396446+00:00",
        "meta_object_name": "GALAXY 28 (G-28)",
        "meta_object_id": "2005-022A",
        "meta_epoch": "2025-12-20T00:49:30.482112",
        "meta_mean_motion": 1.00271047,
        "meta_eccentricity": 0.00029384,
        "meta_inclination": 2.8382,
        "meta_ra_of_asc_node": 81.1982,
        "meta_arg_of_pericenter": 194.0723,
        "meta_mean_anomaly": 97.2981,
        "meta_ephemeris_type": 0,
        "meta_classification_type": "U",
        "meta_norad_cat_id": 28702,
        "meta_element_set_no": 999,
        "meta_rev_at_epoch": 5017,
        "meta_bstar": 0,
        "meta_mean_motion_dot": -1.65e-06,
        "meta_mean_motion_ddot": 0,
        "tle_line1": "1 28702U 05022A   25354.03438058 -.00000165  00000+0  00000+0 0  9999",
        "tle_line2": "2 28702   2.8382  81.1982 0002938 194.0723  97.2981  1.00271047 50172"
      },
      "geometry": {
        "type": "Point",
        "coordinates": [
          -106.20234366032194,
          0.341244633507659
        ]
      }
    },
    {
      "type": "Feature",
      "properties": {
        "norad_id": 29236,
        "name": "GALAXY 16 (G-16)",
        "group": "intelsat",
        "lat": 0.0009004700974399302,
        "lon": -116.53699321307016,
        "alt_km": 35777.10327104894,
        "timestamp": "2025-12-21T16:47:54.396475+00:00",
        "meta_object_name": "GALAXY 16 (G-16)",
        "meta_object_id": "2006-023A",
        "meta_epoch": "2025-12-21T10:59:40.042176",
        "meta_mean_motion": 1.00270962,
        "meta_eccentricity": 0.0002486,
        "meta_inclination": 0.0034,
        "meta_ra_of_asc_node": 102.47,
        "meta_arg_of_pericenter": 169.9945,
        "meta_mean_anomaly": 243.7231,
        "meta_ephemeris_type": 0,
        "meta_classification_type": "U",
        "meta_norad_cat_id": 29236,
        "meta_element_set_no": 999,
        "meta_rev_at_epoch": 7119,
        "meta_bstar": 0,
        "meta_mean_motion_dot": -1.04e-06,
        "meta_mean_motion_ddot": 0,
        "tle_line1": "1 29236U 06023A   25355.45810234 -.00000104  00000+0  00000+0 0  9994",
        "tle_line2": "2 29236   0.0034 102.4700 0002486 169.9945 243.7231  1.00270962 71195"
      },
      "geometry": {
        "type": "Point",
        "coordinates": [
          -116.53699321307016,
          0.0009004700974399302
        ]
      }
    },
    {
      "type": "Feature",
      "properties": {
        "norad_id": 29494,
        "name": "DIRECTV 9S",
        "group": "intelsat",
        "lat": 0.7085923018289872,
        "lon": -118.73125685410733,
        "alt_km": 35776.19409975392,
        "timestamp": "2025-12-21T16:47:54.396488+00:00",
        "meta_object_name": "DIRECTV 9S",
        "meta_object_id": "2006-043A",
        "meta_epoch": "2025-12-21T10:58:23.090016",
        "meta_mean_motion": 1.00271523,
        "meta_eccentricity": 0.0002849,
        "meta_inclination": 1.9613,
        "meta_ra_of_asc_node": 83.1219,
        "meta_arg_of_pericenter": 193.3177,
        "meta_mean_anomaly": 237.2219,
        "meta_ephemeris_type": 0,
        "meta_classification_type": "U",
        "meta_norad_cat_id": 29494,
        "meta_element_set_no": 999,
        "meta_rev_at_epoch": 4960,
        "meta_bstar": 0,
        "meta_mean_motion_dot": -9.2e-07,
        "meta_mean_motion_ddot": 0,
        "tle_line1": "1 29494U 06043A   25355.45721169 -.00000092  00000+0  00000+0 0  9996",
        "tle_line2": "2 29494   1.9613  83.1219 0002849 193.3177 237.2219  1.00271523 49604"
      },
      "geometry": {
        "type": "Point",
        "coordinates": [
          -118.73125685410733,
          0.7085923018289872
        ]
      }
    }
  ]
}